start=new Date('2023-02-24T00:00:00.000Z').valueOf();
sats=[{"FILE":"3828819","MEAN_MOTION":"15.69935691","OBJECT_TYPE":"PAYLOAD","BSTAR":"0.00017783000000","LAUNCH_DATE":"2023-01-31","RA_OF_ASC_NODE":"25.7658","EPOCH":"2023-02-23T10:20:34.679616","GP_ID":"226570089","INCLINATION":"69.9998","TLE_LINE1":"1 55426U 23014AM  23054.43095694  .00021233  00000-0  17783-3 0  9996","REF_FRAME":"TEME","MEAN_ANOMALY":"83.9099","MEAN_MOTION_DDOT":"0.0000000000000","MEAN_ELEMENT_THEORY":"SGP4","PERIAPSIS":"357.156","RCS_SIZE":"LARGE","APOAPSIS":"361.010","TIME_SYSTEM":"UTC","COUNTRY_CODE":"US","ECCENTRICITY":"0.00028600","ARG_OF_PERICENTER":"276.1771","EPHEMERIS_TYPE":"0","TLE_LINE2":"2 55426  69.9998  25.7658 0002860 276.1771  83.9099 15.69935691  4718","CLASSIFICATION_TYPE":"U","OBJECT_ID":"2023-014AM","REV_AT_EPOCH":"471","SITE":"AFWTR","ELEMENT_SET_NO":"999","CENTER_NAME":"EARTH","PERIOD":"91.724","DECAY_DATE":null,"MEAN_MOTION_DOT":"0.00021233","SEMIMAJOR_AXIS":"6737.218","NORAD_CAT_ID":"55426","OBJECT_NAME":"STARLINK-5638"},{"LAUNCH_DATE":"2023-01-31","MEAN_MOTION":"15.69939793","FILE":"3828819","OBJECT_TYPE":"PAYLOAD","BSTAR":"0.00012064000000","EPOCH":"2023-02-23T10:19:58.277568","TLE_LINE1":"1 55427U 23014AN  23054.43053562  .00014326  00000-0  12064-3 0  9997","REF_FRAME":"TEME","INCLINATION":"69.9995","GP_ID":"226571338","RA_OF_ASC_NODE":"25.7653","PERIAPSIS":"357.273","MEAN_ANOMALY":"82.5504","MEAN_ELEMENT_THEORY":"SGP4","MEAN_MOTION_DDOT":"0.0000000000000","COUNTRY_CODE":"US","RCS_SIZE":"LARGE","APOAPSIS":"360.869","TIME_SYSTEM":"UTC","CLASSIFICATION_TYPE":"U","TLE_LINE2":"2 55427  69.9995  25.7653 0002669 277.5388  82.5504 15.69939793  4710","EPHEMERIS_TYPE":"0","OBJECT_ID":"2023-014AN","REV_AT_EPOCH":"471","ECCENTRICITY":"0.00026690","ARG_OF_PERICENTER":"277.5388","PERIOD":"91.723","ELEMENT_SET_NO":"999","SITE":"AFWTR","CENTER_NAME":"EARTH","MEAN_MOTION_DOT":"0.00014326","DECAY_DATE":null,"OBJECT_NAME":"STARLINK-5073","NORAD_CAT_ID":"55427","SEMIMAJOR_AXIS":"6737.206"},{"SITE":"AFWTR","ELEMENT_SET_NO":"999","CENTER_NAME":"EARTH","PERIOD":"91.723","ECCENTRICITY":"0.00028260","ARG_OF_PERICENTER":"280.2715","TLE_LINE2":"2 55428  69.9999  24.5129 0002826 280.2715  79.8162 15.69943787  3840","CLASSIFICATION_TYPE":"U","EPHEMERIS_TYPE":"0","REV_AT_EPOCH":"384","OBJECT_ID":"2023-014AP","SEMIMAJOR_AXIS":"6737.195","NORAD_CAT_ID":"55428","OBJECT_NAME":"STARLINK-5064","DECAY_DATE":null,"MEAN_MOTION_DOT":"0.00022303","RA_OF_ASC_NODE":"24.5129","EPOCH":"2023-02-23T21:03:08.667360","INCLINATION":"69.9999","GP_ID":"226578181","REF_FRAME":"TEME","TLE_LINE1":"1 55428U 23014AP  23054.87718365  .00022303  00000-0  18662-3 0  9999","MEAN_MOTION":"15.69943787","FILE":"3829188","BSTAR":"0.00018662000000","OBJECT_TYPE":"PAYLOAD","LAUNCH_DATE":"2023-01-31","RCS_SIZE":"LARGE","APOAPSIS":"360.964","TIME_SYSTEM":"UTC","COUNTRY_CODE":"US","MEAN_ANOMALY":"79.8162","MEAN_MOTION_DDOT":"0.0000000000000","MEAN_ELEMENT_THEORY":"SGP4","PERIAPSIS":"357.156"},{"PERIAPSIS":"356.737","MEAN_ELEMENT_THEORY":"SGP4","MEAN_MOTION_DDOT":"0.0000000000000","MEAN_ANOMALY":"90.2091","COUNTRY_CODE":"US","TIME_SYSTEM":"UTC","RCS_SIZE":"LARGE","APOAPSIS":"361.501","LAUNCH_DATE":"2023-01-31","OBJECT_TYPE":"PAYLOAD","BSTAR":"0.00037221000000","FILE":"3828819","MEAN_MOTION":"15.69923040","TLE_LINE1":"1 55429U 23014AQ  23054.43084795  .00044781  00000-0  37221-3 0  9991","REF_FRAME":"TEME","GP_ID":"226570339","INCLINATION":"70.0002","EPOCH":"2023-02-23T10:20:25.262880","RA_OF_ASC_NODE":"25.7656","MEAN_MOTION_DOT":"0.00044781","DECAY_DATE":null,"OBJECT_NAME":"STARLINK-5645","NORAD_CAT_ID":"55429","SEMIMAJOR_AXIS":"6737.254","REV_AT_EPOCH":"471","OBJECT_ID":"2023-014AQ","TLE_LINE2":"2 55429  70.0002  25.7656 0003536 269.8699  90.2091 15.69923040  4715","CLASSIFICATION_TYPE":"U","EPHEMERIS_TYPE":"0","ARG_OF_PERICENTER":"269.8699","ECCENTRICITY":"0.00035360","PERIOD":"91.724","CENTER_NAME":"EARTH","SITE":"AFWTR","ELEMENT_SET_NO":"999"},{"RA_OF_ASC_NODE":"24.8240","EPOCH":"2023-02-23T22:00:00.999936","TLE_LINE1":"1 55430U 23014AR  23054.91667824  .00015903  00000-0  28888-3 0  9999","REF_FRAME":"TEME","INCLINATION":"70.0002","GP_ID":"226578184","MEAN_MOTION":"15.49619652","FILE":"3829188","BSTAR":"0.00028888000000","OBJECT_TYPE":"PAYLOAD","LAUNCH_DATE":"2023-01-31","RCS_SIZE":"LARGE","APOAPSIS":"420.087","TIME_SYSTEM":"UTC","COUNTRY_CODE":"US","MEAN_ANOMALY":"315.2265","MEAN_ELEMENT_THEORY":"SGP4","MEAN_MOTION_DDOT":"0.0000000000000","PERIAPSIS":"415.593","SITE":"AFWTR","ELEMENT_SET_NO":"999","CENTER_NAME":"EARTH","PERIOD":"92.926","ECCENTRICITY":"0.00033060","ARG_OF_PERICENTER":"262.4465","TLE_LINE2":"2 55430  70.0002  24.8240 0003306 262.4465 315.2265 15.49619652  3846","CLASSIFICATION_TYPE":"U","EPHEMERIS_TYPE":"0","OBJECT_ID":"2023-014AR","REV_AT_EPOCH":"384","SEMIMAJOR_AXIS":"6795.975","OBJECT_NAME":"STARLINK-5642","NORAD_CAT_ID":"55430","DECAY_DATE":null,"MEAN_MOTION_DOT":"0.00015903"},{"PERIAPSIS":"357.077","MEAN_ANOMALY":"78.4840","MEAN_ELEMENT_THEORY":"SGP4","MEAN_MOTION_DDOT":"0.0000000000000","COUNTRY_CODE":"US","RCS_SIZE":"LARGE","APOAPSIS":"361.077","TIME_SYSTEM":"UTC","LAUNCH_DATE":"2023-01-31","FILE":"3828819","MEAN_MOTION":"15.69937832","OBJECT_TYPE":"PAYLOAD","BSTAR":"0.00011258000000","EPOCH":"2023-02-23T10:20:43.811232","TLE_LINE1":"1 55431U 23014AS  23054.43106263  .00013352  00000-0  11258-3 0  9991","REF_FRAME":"TEME","INCLINATION":"69.9996","GP_ID":"226570839","RA_OF_ASC_NODE":"25.7669","MEAN_MOTION_DOT":"0.00013352","DECAY_DATE":null,"OBJECT_NAME":"STARLINK-5643","NORAD_CAT_ID":"55431","SEMIMAJOR_AXIS":"6737.212","CLASSIFICATION_TYPE":"U","TLE_LINE2":"2 55431  69.9996  25.7669 0002969 281.6023  78.4840 15.69937832  4717","EPHEMERIS_TYPE":"0","OBJECT_ID":"2023-014AS","REV_AT_EPOCH":"471","ECCENTRICITY":"0.00029690","ARG_OF_PERICENTER":"281.6023","PERIOD":"91.723","SITE":"AFWTR","ELEMENT_SET_NO":"999","CENTER_NAME":"EARTH"},{"LAUNCH_DATE":"2023-01-31","BSTAR":"0.00037155000000","OBJECT_TYPE":"PAYLOAD","MEAN_MOTION":"15.49617090","FILE":"3829188","INCLINATION":"70.0004","GP_ID":"226578178","REF_FRAME":"TEME","TLE_LINE1":"1 55432U 23014AT  23054.91667824  .00020511  00000-0  37155-3 0  9999","EPOCH":"2023-02-23T22:00:00.999936","RA_OF_ASC_NODE":"24.8252","PERIAPSIS":"415.635","MEAN_MOTION_DDOT":"0.0000000000000","MEAN_ELEMENT_THEORY":"SGP4","MEAN_ANOMALY":"312.6722","COUNTRY_CODE":"US","TIME_SYSTEM":"UTC","RCS_SIZE":"LARGE","APOAPSIS":"420.060","OBJECT_ID":"2023-014AT","REV_AT_EPOCH":"384","TLE_LINE2":"2 55432  70.0004  24.8252 0003256 263.7227 312.6722 15.49617090  3840","CLASSIFICATION_TYPE":"U","EPHEMERIS_TYPE":"0","ARG_OF_PERICENTER":"263.7227","ECCENTRICITY":"0.00032560","PERIOD":"92.926","CENTER_NAME":"EARTH","ELEMENT_SET_NO":"999","SITE":"AFWTR","MEAN_MOTION_DOT":"0.00020511","DECAY_DATE":null,"NORAD_CAT_ID":"55432","OBJECT_NAME":"STARLINK-5637","SEMIMAJOR_AXIS":"6795.982"},{"MEAN_MOTION_DOT":"0.00021443","DECAY_DATE":null,"OBJECT_NAME":"STARLINK-5570","NORAD_CAT_ID":"55433","SEMIMAJOR_AXIS":"6795.984","REV_AT_EPOCH":"384","OBJECT_ID":"2023-014AU","TLE_LINE2":"2 55433  70.0007  24.8234 0003313 263.3910 315.5566 15.49616452  3842","CLASSIFICATION_TYPE":"U","EPHEMERIS_TYPE":"0","ARG_OF_PERICENTER":"263.3910","ECCENTRICITY":"0.00033130","PERIOD":"92.926","CENTER_NAME":"EARTH","SITE":"AFWTR","ELEMENT_SET_NO":"999","PERIAPSIS":"415.598","MEAN_ELEMENT_THEORY":"SGP4","MEAN_MOTION_DDOT":"0.0000000000000","MEAN_ANOMALY":"315.5566","COUNTRY_CODE":"US","TIME_SYSTEM":"UTC","RCS_SIZE":"LARGE","APOAPSIS":"420.101","LAUNCH_DATE":"2023-01-31","BSTAR":"0.00038827000000","OBJECT_TYPE":"PAYLOAD","MEAN_MOTION":"15.49616452","FILE":"3829147","TLE_LINE1":"1 55433U 23014AU  23054.91667824  .00021443  00000-0  38827-3 0  9992","REF_FRAME":"TEME","INCLINATION":"70.0007","GP_ID":"226577245","EPOCH":"2023-02-23T22:00:00.999936","RA_OF_ASC_NODE":"24.8234"},{"FILE":"3829294","MEAN_MOTION":"15.49605980","BSTAR":"0.00070120000000","OBJECT_TYPE":"PAYLOAD","LAUNCH_DATE":"2023-01-31","RA_OF_ASC_NODE":"24.8298","EPOCH":"2023-02-23T22:00:00.999936","TLE_LINE1":"1 55434U 23014AV  23054.91667824  .00038928  00000-0  70120-3 0  9991","REF_FRAME":"TEME","GP_ID":"226580383","INCLINATION":"70.0007","MEAN_ANOMALY":"309.9610","MEAN_ELEMENT_THEORY":"SGP4","MEAN_MOTION_DDOT":"0.0000000000000","PERIAPSIS":"415.668","RCS_SIZE":"LARGE","APOAPSIS":"420.092","TIME_SYSTEM":"UTC","COUNTRY_CODE":"US","ECCENTRICITY":"0.00032550","ARG_OF_PERICENTER":"262.6012","TLE_LINE2":"2 55434  70.0007  24.8298 0003255 262.6012 309.9610 15.49605980  3844","EPHEMERIS_TYPE":"0","CLASSIFICATION_TYPE":"U","REV_AT_EPOCH":"384","OBJECT_ID":"2023-014AV","ELEMENT_SET_NO":"999","SITE":"AFWTR","CENTER_NAME":"EARTH","PERIOD":"92.927","DECAY_DATE":null,"MEAN_MOTION_DOT":"0.00038928","SEMIMAJOR_AXIS":"6796.015","OBJECT_NAME":"STARLINK-5621","NORAD_CAT_ID":"55434"},{"TLE_LINE2":"2 55435  70.0006  24.8278 0003273 264.1156 311.0083 15.49622103  3842","CLASSIFICATION_TYPE":"U","EPHEMERIS_TYPE":"0","OBJECT_ID":"2023-014AW","REV_AT_EPOCH":"384","ECCENTRICITY":"0.00032730","ARG_OF_PERICENTER":"264.1156","PERIOD":"92.926","SITE":"AFWTR","ELEMENT_SET_NO":"999","CENTER_NAME":"EARTH","MEAN_MOTION_DOT":"0.00006539","DECAY_DATE":null,"NORAD_CAT_ID":"55435","OBJECT_NAME":"STARLINK-5626","SEMIMAJOR_AXIS":"6795.968","LAUNCH_DATE":"2023-01-31","MEAN_MOTION":"15.49622103","FILE":"3829147","OBJECT_TYPE":"PAYLOAD","BSTAR":"0.00012062000000","EPOCH":"2023-02-23T22:00:00.999936","GP_ID":"226577235","INCLINATION":"70.0006","REF_FRAME":"TEME","TLE_LINE1":"1 55435U 23014AW  23054.91667824  .00006539  00000-0  12062-3 0  9996","RA_OF_ASC_NODE":"24.8278","PERIAPSIS":"415.608","MEAN_ANOMALY":"311.0083","MEAN_MOTION_DDOT":"0.0000000000000","MEAN_ELEMENT_THEORY":"SGP4","COUNTRY_CODE":"US","RCS_SIZE":"LARGE","APOAPSIS":"420.057","TIME_SYSTEM":"UTC"}];
